NORAD_CAT_ID,OBJECT_NAME,OBJECT_TYPE,EPOCH,MEAN_MOTION,ECCENTRICITY,INCLINATION,RA_OF_ASC_NODE,ARG_OF_PERICENTER,MEAN_ANOMALY,BSTAR,MEAN_MOTION_DOT,MEAN_MOTION_DDOT,TLE_LINE0,TLE_LINE1,TLE_LINE2,SEMIMAJOR_AXIS,PERIOD,APOGEE,PERIGEE,DECAYED
53728.0,STARLINK-4640,PAYLOAD,2023-01-30 04:36:28,15.08838537,0.0001328,53.2199,307.0275,93.7659,266.3486,6.1201e-05,6.86e-06,0.0,0 STARLINK-4640,1 53728U 22107AE  23030.19199441  .00000686  00000-0  61201-4 0  9997,2 53728  53.2199 307.0275 0001328  93.7659 266.3486 15.08838537 22684,6917.885,95.438,540.669,538.831,0.0
53728.0,STARLINK-4640,PAYLOAD,2023-01-30 22:05:43,15.08836146,0.0001301,53.2196,303.757,91.2878,268.8263,-3.7979e-06,-3.48e-06,0.0,0 STARLINK-4640,1 53728U 22107AE  23030.92064160 -.00000348  00000-0 -37979-5 0  9990,2 53728  53.2196 303.7570 0001301  91.2878 268.8263 15.08836146 22795,6917.892,95.438,540.657,538.857,0.0
53728.0,STARLINK-4640,PAYLOAD,2023-01-31 01:16:29,15.08839793,0.0001212,53.2189,303.1636,94.8178,265.2953,5.1413e-05,5.3e-06,0.0,0 STARLINK-4640,1 53728U 22107AE  23031.05311738  .00000530  00000-0  51413-4 0  9990,2 53728  53.2189 303.1636 0001212  94.8178 265.2953 15.08839793 23415,6917.881,95.438,540.584,538.908,0.0
53728.0,STARLINK-4640,PAYLOAD,2023-01-31 20:21:07,15.08839055,0.0001239,53.2189,299.5948,100.9656,259.1475,3.0973e-05,2.05e-06,0.0,0 STARLINK-4640,1 53728U 22107AE  23031.84799897  .00000205  00000-0  30973-4 0  9990,2 53728  53.2189 299.5948 0001239 100.9656 259.1475 15.08839055 23533,6917.883,95.438,540.605,538.891,0.0
53728.0,STARLINK-4640,PAYLOAD,2023-02-02 02:33:26,15.08843826,0.0001173,53.2188,293.9448,94.4407,265.6719,-7.5199e-06,-4.08e-06,0.0,0 STARLINK-4640,1 53728U 22107AE  23033.10655701 -.00000408  00000-0 -75199-5 0  9993,2 53728  53.2188 293.9448 0001173  94.4407 265.6719 15.08843826 23122,6917.869,95.437,540.545,538.922,0.0
53728.0,STARLINK-4640,PAYLOAD,2023-02-03 02:24:12,15.08849282,0.0001196,53.2212,289.4795,86.3121,273.8008,9.1187e-05,1.164e-05,0.0,0 STARLINK-4640,1 53728U 22107AE  23034.10014837  .00001164  00000-0  91187-4 0  9995,2 53728  53.2212 289.4795 0001196  86.3121 273.8008 15.08849282 23273,6917.852,95.437,540.544,538.89,0.0
53728.0,STARLINK-4640,PAYLOAD,2023-02-03 16:42:42,15.08831017,0.0001182,53.2203,286.8052,86.108,274.0047,-7.2878e-05,-1.447e-05,0.0,0 STARLINK-4640,1 53728U 22107AE  23034.69632659 -.00001447  00000-0 -72878-4 0  9999,2 53728  53.2203 286.8052 0001182  86.1080 274.0047 15.08831017 23360,6917.908,95.438,540.591,538.955,0.0
53728.0,STARLINK-4640,PAYLOAD,2023-02-04 21:19:37,15.08841799,0.0001098,53.2187,281.454,100.8298,259.2818,0.0001001,1.306e-05,0.0,0 STARLINK-4640,1 53728U 22107AE  23035.88863226  .00001306  00000-0  10010-3 0  9998,2 53728  53.2187 281.4540 0001098 100.8298 259.2818 15.08841799 23544,6917.875,95.437,540.499,538.98,0.0
53728.0,STARLINK-4640,PAYLOAD,2023-02-05 02:05:46,15.08878723,0.0001308,53.2186,280.5623,74.1039,286.0097,-0.0002651,-4.509e-05,0.0,0 STARLINK-4640,1 53728U 22107AE  23036.08734287 -.00004509  00000-0 -26510-3 0  9997,2 53728  53.2186 280.5623 0001308  74.1039 286.0097 15.08878723 23572,6917.762,95.435,540.532,538.722,0.0
53728.0,STARLINK-4640,PAYLOAD,2023-02-05 19:35:02,15.08831518,0.0001146,53.2183,277.2919,82.3133,277.7989,-3.8531e-06,-3.49e-06,0.0,0 STARLINK-4640,1 53728U 22107AE  23036.81600504 -.00000349  00000-0 -38531-5 0  9998,2 53728  53.2183 277.2919 0001146  82.3133 277.7989 15.08831518 23686,6917.906,95.438,540.564,538.979,0.0
53728.0,STARLINK-4640,PAYLOAD,2023-02-05 22:45:48,15.08834055,0.000117,53.2183,276.6976,76.5589,283.5533,2.0106e-05,3.2e-07,0.0,0 STARLINK-4640,1 53728U 22107AE  23036.94848332  .00000032  00000-0  20106-4 0  9990,2 53728  53.2183 276.6976 0001170  76.5589 283.5533 15.08834055 24308,6917.899,95.438,540.573,538.954,0.0
53728.0,STARLINK-4640,PAYLOAD,2023-02-06 01:56:35,15.08835273,0.0001184,53.2183,276.1028,76.4867,283.6257,2.6853e-05,1.4e-06,0.0,0 STARLINK-4640,1 53728U 22107AE  23037.08096267  .00000140  00000-0  26853-4 0  9993,2 53728  53.2183 276.1028 0001184  76.4867 283.6257 15.08835273 24323,6917.895,95.438,540.579,538.941,0.0
53728.0,STARLINK-4640,PAYLOAD,2023-02-06 21:01:12,15.08847167,0.0001167,53.2182,272.5352,78.655,281.4573,-7.2927e-05,-1.449e-05,0.0,0 STARLINK-4640,1 53728U 22107AE  23037.87583966 -.00001449  00000-0 -72927-4 0  9995,2 53728  53.2182 272.5352 0001167  78.6550 281.4573 15.08847167 23844,6917.858,95.437,540.531,538.916,0.0
53728.0,STARLINK-4640,PAYLOAD,2023-02-07 01:47:21,15.08853795,0.0001218,53.2187,271.6423,78.2096,281.9033,7.721e-06,-1.65e-06,0.0,0 STARLINK-4640,1 53728U 22107AE  23038.07455114 -.00000165  00000-0  77210-5 0  9995,2 53728  53.2187 271.6423 0001218  78.2096 281.9033 15.08853795 23879,6917.838,95.437,540.546,538.861,0.0
53728.0,STARLINK-4640,PAYLOAD,2023-02-07 22:27:23,15.08831958,0.0001087,53.218,267.7775,79.6977,280.4138,1.3647e-05,-7.1e-07,0.0,0 STARLINK-4640,1 53728U 22107AE  23038.93568744 -.00000071  00000-0  13647-4 0  9993,2 53728  53.2180 267.7775 0001087  79.6977 280.4138 15.08831958 24008,6917.905,95.438,540.522,539.018,0.0
53728.0,STARLINK-4640,PAYLOAD,2023-02-08 22:18:09,15.08847729,0.0001018,53.2187,263.3168,96.179,263.9318,7.1562e-06,-1.74e-06,0.0,0 STARLINK-4640,1 53728U 22107AE  23039.92928141 -.00000174  00000-0  71562-5 0  9999,2 53728  53.2187 263.3168 0001018  96.1790 263.9318 15.08847729 24755,6917.857,95.437,540.426,539.018,0.0
53728.0,STARLINK-4640,PAYLOAD,2023-02-08 23:53:33,15.08846657,0.0001014,53.2185,263.0193,96.5293,263.5815,6.7314e-06,-1.81e-06,0.0,0 STARLINK-4640,1 53728U 22107AE  23039.99552178 -.00000181  00000-0  67314-5 0  9997,2 53728  53.2185 263.0193 0001014  96.5293 263.5815 15.08846657 24168,6917.86,95.437,540.427,539.024,0.0
53728.0,STARLINK-4640,PAYLOAD,2023-02-09 20:33:34,15.08843113,0.0001155,53.2192,259.154,83.834,276.2784,5.3567e-05,5.65e-06,0.0,0 STARLINK-4640,1 53728U 22107AE  23040.85664522  .00000565  00000-0  53567-4 0  9990,2 53728  53.2192 259.1540 0001155  83.8340 276.2784 15.08843113 24896,6917.871,95.437,540.535,538.937,0.0
53728.0,STARLINK-4640,PAYLOAD,2023-02-09 23:44:19,15.08847773,0.0001109,53.2181,258.557,88.3964,271.7155,0.00010108,1.322e-05,0.0,0 STARLINK-4640,1 53728U 22107AE  23040.98911892  .00001322  00000-0  10108-3 0  9994,2 53728  53.2181 258.5570 0001109  88.3964 271.7155 15.08847773 24912,6917.857,95.437,540.489,538.954,0.0
53728.0,STARLINK-4640,PAYLOAD,2023-02-10 20:24:21,15.08842276,0.0001195,53.2185,254.6933,113.4407,246.6711,2.8633e-06,-2.42e-06,0.0,0 STARLINK-4640,1 53728U 22107AE  23041.85024718 -.00000242  00000-0  28633-5 0  9998,2 53728  53.2185 254.6933 0001195 113.4407 246.6711 15.08842276 24443,6917.873,95.437,540.565,538.912,0.0
53728.0,STARLINK-4640,PAYLOAD,2023-02-11 20:15:08,15.08843563,0.0001159,53.2183,250.2335,76.5987,283.5134,-2.904e-05,-7.5e-06,0.0,0 STARLINK-4640,1 53728U 22107AE  23042.84384988 -.00000750  00000-0 -29040-4 0  9993,2 53728  53.2183 250.2335 0001159  76.5987 283.5134 15.08843563 25193,6917.869,95.437,540.536,538.933,0.0
53728.0,STARLINK-4640,PAYLOAD,2023-02-12 07:22:49,15.0885119,0.0001119,53.218,248.1516,73.5847,286.5268,2.7651e-05,1.52e-06,0.0,0 STARLINK-4640,1 53728U 22107AE  23043.30752153  .00000152  00000-0  27651-4 0  9998,2 53728  53.2180 248.1516 0001119  73.5847 286.5268 15.08851190 24662,6917.846,95.437,540.485,538.937,0.0
53728.0,STARLINK-4640,PAYLOAD,2023-02-12 13:44:23,15.08836054,0.0001111,53.2173,246.9629,71.2085,288.9027,4.8213e-05,4.8e-06,0.0,0 STARLINK-4640,1 53728U 22107AE  23043.57249244  .00000480  00000-0  48213-4 0  9990,2 53728  53.2173 246.9629 0001111  71.2085 288.9027 15.08836054 24702,6917.892,95.438,540.526,538.989,0.0
53728.0,STARLINK-4640,PAYLOAD,2023-02-13 13:35:10,15.08842101,0.000102,53.218,242.5011,75.1188,284.9917,4.5357e-05,4.34e-06,0.0,0 STARLINK-4640,1 53728U 22107AE  23044.56609118  .00000434  00000-0  45357-4 0  9995,2 53728  53.2180 242.5011 0001020  75.1188 284.9917 15.08842101 25450,6917.874,95.437,540.445,539.033,0.0
53728.0,STARLINK-4640,PAYLOAD,2023-02-13 19:56:42,15.08848737,0.0001037,53.2178,241.3119,70.6477,289.4628,0.00011296,1.511e-05,0.0,0 STARLINK-4640,1 53728U 22107AE  23044.83104599  .00001511  00000-0  11296-3 0  9999,2 53728  53.2178 241.3119 0001037  70.6477 289.4628 15.08848737 24899,6917.854,95.437,540.436,539.001,0.0
53728.0,STARLINK-4640,PAYLOAD,2023-02-14 02:18:15,15.08831053,0.0001139,53.2174,240.1225,73.206,286.9057,-0.00010496,-1.957e-05,0.0,0 STARLINK-4640,1 53728U 22107AE  23045.09601525 -.00001957  00000-0 -10496-3 0  9996,2 53728  53.2174 240.1225 0001139  73.2060 286.9057 15.08831053 24936,6917.908,95.438,540.561,538.985,0.0
53728.0,STARLINK-4640,PAYLOAD,2023-02-14 11:50:34,15.08837015,0.0001264,53.2171,238.3394,59.1905,300.9211,5.0256e-05,5.12e-06,0.0,0 STARLINK-4640,1 53728U 22107AE  23045.49345394  .00000512  00000-0  50256-4 0  9992,2 53728  53.2171 238.3394 0001264  59.1905 300.9211 15.08837015 25595,6917.89,95.438,540.629,538.88,0.0
53728.0,STARLINK-4640,PAYLOAD,2023-02-14 19:47:29,15.08844993,0.0001058,53.2174,236.8518,73.9471,286.1637,0.00016236,2.297e-05,0.0,0 STARLINK-4640,1 53728U 22107AE  23045.82465016  .00002297  00000-0  16236-3 0  9994,2 53728  53.2174 236.8518 0001058  73.9471 286.1637 15.08844993 25042,6917.865,95.437,540.462,538.998,0.0
53728.0,STARLINK-4640,PAYLOAD,2023-02-15 13:16:44,15.08850629,9.82e-05,53.2169,233.5807,85.2832,274.8272,0.00075036,0.00011678,0.0,0 STARLINK-4640,1 53728U 22107AE  23046.55329032  .00011678  00000-0  75036-3 0  9998,2 53728  53.2169 233.5807 0000982  85.2832 274.8272 15.08850629 25753,6917.848,95.437,540.392,539.034,0.0
53728.0,STARLINK-4640,PAYLOAD,2023-02-15 21:13:39,15.08865007,9.82e-05,53.2169,232.0939,84.7551,275.3553,0.0011615,0.00018258,0.0,0 STARLINK-4640,1 53728U 22107AE  23046.88448663  .00018258  00000-0  11615-2 0  9999,2 53728  53.2169 232.0939 0000982  84.7551 275.3553 15.08865007 25805,6917.804,95.436,540.348,538.99,0.0
